STARLINK-36994          
1 67997U 26039M   26081.83335648 -.00132380  00000+0 -22842-2 0  9993
2 67997  42.9998 335.8051 0001655 264.3374 356.3253 15.50637354  4990
STARLINK-36988          
1 67998U 26039N   26081.83335648 -.00131202  00000+0 -22633-2 0  9994
2 67998  42.9998 335.7468 0001307 261.2636  23.1334 15.50640381  4996
STARLINK-36926          
1 67999U 26039P   26081.83335648 -.00125121  00000+0 -21566-2 0  9992
2 67999  43.0000 335.7819 0001272 259.7775  10.1952 15.50639092  4999
STARLINK-36931          
1 68000U 26039Q   26081.83335648 -.00135954  00000+0 -23468-2 0  9994
2 68000  42.9996 335.5004 0001968 254.7958 129.2028 15.50639189  4992
STARLINK-36903          
1 68001U 26039R   26081.83335648 -.01061623  00000+0 -19669-1 0  9994
2 68001  42.9998 335.7693 0002130 242.8672  32.4576 15.50950466  4991
STARLINK-36898          
1 68002U 26039S   26081.83335648 -.01963629  00000+0 -38032-1 0  9997
2 68002  42.9998 335.5428 0001861 257.6452 108.8150 15.50098484  4995
STARLINK-36862          
1 68003U 26039T   26081.83335648 -.01946352  00000+0 -39620-1 0  9996
2 68003  42.9998 335.6676 0001346 254.9296  60.9875 15.48678278  4990
STARLINK-36888          
1 68004U 26039U   26081.83335648 -.01979610  00000+0 -39111-1 0  9995
2 68004  42.9999 335.7192 0001197 253.3330  41.9959 15.49575603  4993
STARLINK-36910          
1 68005U 26039V   26081.83335648 -.01991199  00000+0 -39456-1 0  9994
2 68005  42.9996 335.4553 0001995 269.8820 132.2879 15.49504625  4992
STARLINK-36889          
1 68006U 26039W   26081.83335648  .00056342  00000+0  96034-3 0  9991
2 68006  42.9999 335.7837 0001125 265.2642   3.4912 15.50548668  4995
STARLINK-36592          
1 68007U 26039X   26081.83335648 -.00074145  00000+0 -12683-2 0  9992
2 68007  42.9998 335.4798 0001558 256.8496 134.7600 15.50617057  4992
STARLINK-36911          
1 68008U 26039Y   26081.83335648 -.00114724  00000+0 -19755-2 0  9998
2 68008  43.0001 335.5694 0001402 261.5337  93.7082 15.50621844  4998
STARLINK-36956          
1 68009U 26039Z   26081.83335648 -.00052773  00000+0 -89853-3 0  9991
2 68009  43.0002 335.6365 0002000 249.4314  78.8494 15.50616645  4995
STARLINK-36953          
1 68010U 26039AA  26081.83335648 -.01280866  00000+0 -23518-1 0  9994
2 68010  42.9993 335.1178 0001438 251.2274 286.4860 15.51278161  4993
STARLINK-36991          
1 68011U 26039AB  26081.00002315  .00067062  00000+0  11428-2 0  9992
2 68011  42.9998 341.1865 0002115 277.6890 159.1594 15.50488205  4854
STARLINK-36936          
1 68012U 26039AC  26081.83335648 -.00058853  00000+0 -10034-2 0  9994
2 68012  43.0003 335.5963 0001606 254.9399  88.7777 15.50619485  4997
STARLINK-36967          
1 68013U 26039AD  26081.68952656  .00087398  00000+0  14797-2 0  9996
2 68013  42.9986 337.0781 0001962 254.0409 106.0235 15.50565500  3674
STARLINK-36985          
1 68014U 26039AE  26081.83335648 -.01462834  00000+0 -26787-1 0  9996
2 68014  42.9987 335.0642 0001671 271.9990 287.0595 15.51757093  4996
STARLINK-36335          
1 68015U 26040A   26081.83335648  .00001033  00000+0  77741-5 0  9996
2 68015  97.2864  30.9226 0001550 111.1828 264.2686 15.75243957  4492
STARLINK-36923          
1 68016U 26040B   26081.83335648 -.00351999  00000+0 -24305-2 0  9993
2 68016  97.2859  30.9270 0001638  68.5327 312.8512 15.75441936  4543
STARLINK-36568          
1 68017U 26040C   26081.83335648 -.00329861  00000+0 -22750-2 0  9999
2 68017  97.2857  30.9284 0001476  92.0644 293.3434 15.75410767  4545
STARLINK-36930          
1 68018U 26040D   26081.83335648  .00029430  00000+0  19732-3 0  9994
2 68018  97.2859  30.9254 0001496 111.3722 266.0973 15.75211675  4541
STARLINK-36921          
1 68019U 26040E   26081.83335648 -.00004928  00000+0 -32137-4 0  9997
2 68019  97.2849  30.9382 0001715  56.2738 343.1874 15.75225007  4542
STARLINK-36928          
1 68020U 26040F   26081.83335648 -.00115470  00000+0 -78103-3 0  9996
2 68020  97.2856  30.9336 0001346  79.7145 313.7436 15.75271107  4542
STARLINK-36858          
1 68021U 26040G   26081.95015587 -.00482577  00000+0 -33921-2 0  9990
2 68021  97.2836  31.2209 0001162 109.0153 251.1238 15.75383089  3453
STARLINK-36916          
1 68022U 26040H   26081.83335648 -.00363720  00000+0 -25166-2 0  9991
2 68022  97.2857  30.9368 0001432  85.6466 319.7495 15.75427581  4548
STARLINK-36871          
1 68023U 26040J   26081.83335648  .00019251  00000+0  12946-3 0  9990
2 68023  97.2861  30.9377 0001181 110.3983 297.0609 15.75224175  4544
STARLINK-36891          
1 68024U 26040K   26081.83335648 -.00318085  00000+0 -21920-2 0  9991
2 68024  97.2859  30.9393 0001717  79.2596 332.1604 15.75396817  4547
STARLINK-36378          
1 68025U 26040L   26081.83335648 -.00371790  00000+0 -25734-2 0  9991
2 68025  97.2851  30.9462 0001824  63.0612 356.3409 15.75438353  4493
STARLINK-36884          
1 68026U 26040M   26081.83335648 -.00269865  00000+0 -18513-2 0  9998
2 68026  97.2856  30.9429 0001671  70.9699 346.4597 15.75371466  4549
STARLINK-36940          
1 68027U 26040N   26081.83335648  .00019296  00000+0  12978-3 0  9998
2 68027  97.2847  30.9720 0001701 127.6065 339.8461 15.75219116  4634
STARLINK-36253          
1 68028U 26040P   26081.83335648 -.01870827  00000+0 -29103-1 0  9993
2 68028  97.2847  30.6542 0001623  89.2050   2.7102 15.57192336  4647
STARLINK-36944          
1 68029U 26040Q   26081.83335648 -.00092262  00000+0 -62178-3 0  9993
2 68029  97.2859  30.9443 0001406  79.2271 344.2009 15.75286165  4540
STARLINK-36942          
1 68030U 26040R   26081.83335648 -.00010897  00000+0 -72195-4 0  9990
2 68030  97.2852  30.9493 0001287 113.7260 313.7408 15.75217109  4545
STARLINK-36913          
1 68031U 26040S   26081.83335648 -.00129377  00000+0 -87549-3 0  9993
2 68031  97.2852  30.9514 0001491 100.2658 331.1542 15.75300056  4546
STARLINK-36935          
1 68032U 26040T   26081.83335648  .00068579  00000+0  45672-3 0  9999
2 68032  97.2850  30.9648 0001666 115.7232 343.7347 15.75201989  4633
STARLINK-36947          
1 68033U 26040U   26081.83335648 -.00225006  00000+0 -15357-2 0  9998
2 68033  97.2849  30.9528 0001598  83.0173 352.3629 15.75367753  4545
STARLINK-36939          
1 68034U 26040V   26081.83335648  .00089223  00000+0  59393-3 0  9995
2 68034  97.2844  30.9609 0002229  82.6662   8.7992 15.75145384  4540
STARLINK-36943          
1 68035U 26040W   26081.83335648 -.00224034  00000+0 -15304-2 0  9992
2 68035  97.2847  30.9675 0002082 111.6564 345.7621 15.75343434  4592
STARLINK-36906          
1 68036U 26040X   26081.83335648 -.00173733  00000+0 -11802-2 0  9991
2 68036  97.2846  30.9608 0001371  70.2607  17.1402 15.75336647  4546
STARLINK-36388          
1 68037U 26040Y   26081.83335648 -.00138950  00000+0 -93993-3 0  9996
2 68037  97.2847  30.9634 0001160  74.5935  20.7844 15.75336709  4497
STARLINK-36895          
1 68038U 26040Z   26081.83335648 -.00102435  00000+0 -69072-3 0  9997
2 68038  97.2854  30.9560 0001376  89.8959 353.5142 15.75303844  4546
STARLINK-36373          
1 68039U 26040AA  26081.83335648 -.00265163  00000+0 -18182-2 0  9991
2 68039  97.2850  30.9544 0001443  93.9205 345.4979 15.75370521  4498
STARLINK-36711          
1 68040U 26041A   26081.96655625  .00312728  00000+0  19514-2 0  9996
2 68040  53.1588 355.9450 0001612  20.4231 339.6854 15.75453789  3312
STARLINK-36825          
1 68041U 26041B   26081.93584820  .00504095  00000+0  23868-2 0  9999
2 68041  53.1589 355.7397 0000932 208.2428 151.8544 15.81094977  3317
STARLINK-36925          
1 68042U 26041C   26081.77654178  .00496695  00000+0  30207-2 0  9997
2 68042  53.1584 356.8928 0001235 155.1515 204.9565 15.75519516  3282
STARLINK-36902          
1 68043U 26041D   26081.93509581  .00518205  00000+0  24524-2 0  9990
2 68043  53.1590 355.7364 0001861 177.6730 182.4302 15.81071249  3311
STARLINK-36966          
1 68044U 26041E   26081.77201951  .00515090  00000+0  31294-2 0  9994
2 68044  53.1590 356.8628 0001204 137.8092 222.3021 15.75490725  3282
STARLINK-36864          
1 68045U 26041F   26081.96201617  .00307119  00000+0  19233-2 0  9995
2 68045  53.1594 355.9148 0000764  80.4896 279.6211 15.75387065  3311
STARLINK-36321          
1 68046U 26041G   26081.83335648 -.00103553  00000+0 -67844-3 0  9994
2 68046  53.1591 356.2380 0001332 102.0401  42.6292 15.75278309  4482
STARLINK-36181          
1 68047U 26041H   26081.93284980  .00351297  00000+0  16955-2 0  9992
2 68047  53.1589 355.7206 0000992  23.8217 336.2852 15.81082863  3317
STARLINK-36318          
1 68048U 26041J   26081.95780468  .00313623  00000+0  19619-2 0  9998
2 68048  53.1604 355.8861 0001710  31.3463 328.7659 15.75393705  3314
STARLINK-36885          
1 68049U 26041K   26081.95747683  .00393494  00000+0  24226-2 0  9995
2 68049  53.1601 355.8838 0001159 352.5884   7.5119 15.75529991  3319
STARLINK-36945          
1 68050U 26041L   26081.93059615  .00408509  00000+0  19621-2 0  9993
2 68050  53.1590 355.7052 0001565 164.3591 195.7481 15.81036105  3319
STARLINK-35911          
1 68051U 26041M   26081.92909620  .00585776  00000+0  27456-2 0  9990
2 68051  53.1589 355.6957 0001597 160.1639 199.9446 15.81103577  3318
STARLINK-35808          
1 68052U 26041N   26081.83335648  .00012944  00000+0  88470-4 0  9991
2 68052  53.1591 356.2405 0001349 118.0911  24.6826 15.75241631  4456
STARLINK-36919          
1 68053U 26041P   26081.48505512  .00474255  00000+0  22737-2 0  9991
2 68053  53.1589 357.9017 0002213 295.2881  64.7912 15.80904176  3249
STARLINK-36924          
1 68054U 26041Q   26081.95326573  .00354542  00000+0  22079-2 0  9997
2 68054  53.1602 355.8562 0001551  39.5098 320.6035 15.75379003  3318
STARLINK-35998          
1 68055U 26041R   26081.83335648 -.00129752  00000+0 -85314-3 0  9995
2 68055  53.1591 356.1840 0000761 122.1073  48.2983 15.75297228  4452
